#aV2009  2 11  0  0   .00000000      96 DD+AD WGS84 FIT  NGA
## 1518 259200.00000000   900.00000000 54873  .0000000000000
+   31     2  3  4  5  6  7  8  9 10 11 12 13 14 15 16 17 18
+         19 20 21 22 23 24 25 26 27 28 29 30 31 32  0  0  0
+          0  0  0  0  0  0  0  0  0  0  0  0  0  0  0  0  0
+          0  0  0  0  0  0  0  0  0  0  0  0  0  0  0  0  0
+          0  0  0  0  0  0  0  0  0  0  0  0  0  0  0  0  0
++         0  0  0  0  0  0  0  0  0  0  0  0  0  0  0  0  0
++         0  0  0  0  0  0  0  0  0  0  0  0  0  0  0  0  0
++         0  0  0  0  0  0  0  0  0  0  0  0  0  0  0  0  0
++         0  0  0  0  0  0  0  0  0  0  0  0  0  0  0  0  0
++         0  0  0  0  0  0  0  0  0  0  0  0  0  0  0  0  0
%c cc cc ccc ccc cccc cccc cccc cccc ccccc ccccc ccccc ccccc
%c cc cc ccc ccc cccc cccc cccc cccc ccccc ccccc ccccc ccccc
%f  0.0000000  0.000000000  0.00000000000  0.000000000000000
%f  0.0000000  0.000000000  0.00000000000  0.000000000000000
%i    0    0    0    0      0      0      0      0         0
%i    0    0    0    0      0      0      0      0         0
/*      NGA, ST. LOUIS,MO.                                  
/*   EPHEMERIS COMPUTED FROM  3 DAYS OF DATA                
/* CCCCCCCCCCCCCCCCCCCCCCCCCCCCCCCCCCCCCCCCCCCCCCCCCCCCCCCCC
/* CCCCCCCCCCCCCCCCCCCCCCCCCCCCCCCCCCCCCCCCCCCCCCCCCCCCCCCCC
*  2009  2 11  8 15   .00000000                                                 
P  2 -22068.872136  10870.463450  -9604.195129    157.811747                    
V  2   6675.719236 -10732.374674 -28227.319960      -.013598                    
P  3  13537.182252  -8736.570931  20778.061108    351.486522                    
V  3   9370.069896  25610.004124   4950.893969       .053745                    
P  4 -19202.996074  -1064.333366 -18597.889504   -332.466466                    
V  4  16387.124413 -16616.499703 -15711.399441      -.139380                    
P  5   -812.174692  15821.493521 -21622.777974   -661.475263                    
V  5 -26227.621018  -5568.437286  -3009.817880      -.462059                    
P  6  15430.318776  -3760.664351  21477.309920     60.939427                    
V  6   6774.588600  26071.119984   -273.657346      -.143376                    
P  7  -1492.888270 -17317.147029  20035.640291     22.746734                    
V  7  19676.703720 -16248.207111 -12672.951064      -.003323                    
P  8 -13614.073402  -7378.789265  21597.297520   -190.141524                    
V  8  21234.424667 -17312.543615   6971.300318      -.016926                    
P  9 -12818.049038  21418.593798  -9555.516170     39.838400                    
V  9  -9529.715485   6309.984076  28988.442364       .019778                    
P 10 -21101.732779   4191.190455  15642.475073    -10.962330                    
V 10 -18275.696099  -8347.675279 -21862.076128      -.006942                    
P 11   8903.779665 -23510.602576  -8210.082390      7.869700                    
V 11  10054.601957  -5545.464067  27803.426432      -.011806                    
P 12  -4706.242720  14308.802295 -21800.914031   -317.142187                    
V 12 -26434.302351  -8749.473685     67.949035       .037509                    
P 13  -5176.723276 -25997.883766   1657.588861    288.179805                    
V 13   1329.076951  -2480.317489 -32407.213512       .012845                    
P 14  14256.193980  13580.845525 -17756.248871   -155.769454                    
V 14   2843.994090  22532.828329  19282.723219       .053591                    
P 15  -8395.735146  18248.924036  17378.911549   -255.113857                    
V 15  -6634.105770 -21094.189044  19028.081080      -.052822                    
P 16  24372.692660    545.762039  10876.526643     75.479792                    
V 16  12191.875840   6434.717397 -27578.637934      -.028076                    
P 17 -14412.152898 -15772.253315 -15844.153660     46.741284                    
V 17  -2082.071096 -20120.442185  21666.125969       .011906                    
P 18  15889.941116  16480.292017  13981.455218    -84.456588                    
V 18 -17040.488859  -3737.606645  23774.407506       .035902                    
P 19   8274.630707 -19823.253217  15535.298222     32.584051                    
V 19   4863.084417  19224.623039  22255.537702      -.006077                    
P 20   1635.401065 -15750.660532 -21452.623340     91.102949                    
V 20  25966.366997   7433.983748  -3450.934728      -.010726                    
P 21   6787.568541  14793.235947  21137.919258     29.589278                    
V 21 -20636.617715  16666.359137  -5715.697293      -.018441                    
P 22  23405.603858  11918.736590   4310.977490    205.307775                    
V 22  -6100.503768   1272.886398  30647.413282      -.005526                    
P 23    633.983269 -25064.106994  -8388.199845    386.800245                    
V 23   4627.490623   9914.363390 -29704.813661       .006559                    
P 24  -8704.873783  20593.534282  14675.528164    164.673398                    
V 24 -15530.159889   9940.900652 -23110.521006       .029540                    
P 25   4176.134416 -21020.518121  16170.163409    234.924585                    
V 25  14503.733311 -13539.745924 -21646.355976       .248631                    
P 26 -11452.236912  11793.319874  20209.982802     43.714288                    
V 26  -5269.522887 -26397.501447  12626.465618       .029254                    
P 27 -19948.394615   2707.035279  18066.188680     23.762213                    
V 27  14252.694845 -16164.156353  18799.497382       .030358                    
P 28 -22433.520102 -13039.518902   6848.962498    -23.701936                    
V 28   8332.154401    650.310707  30080.842787       .002492                    
P 29   5294.393493  26044.595816    537.270169    -11.003045                    
V 29  -2654.277514   1068.594887 -31709.530615       .032893                    
P 30   8904.885478  16624.340257 -19095.343932    125.603117                    
V 30 -23007.130527  -4977.740719 -15270.438374       .024760                    
P 31  19843.152895  -1937.587047 -17396.762718    -51.149855                    
V 31 -15619.412055  16181.689150 -19253.031575      -.013889                    
P 32  10587.970862 -11380.116997 -21097.461230    296.394626                    
V 32  25319.202089  11435.813322   6645.132532      -.032979                    
EOF
